CCSDS_OMM_VERS,COMMENT,CREATION_DATE,ORIGINATOR,OBJECT_NAME,OBJECT_ID,CENTER_NAME,REF_FRAME,TIME_SYSTEM,MEAN_ELEMENT_THEORY,EPOCH,MEAN_MOTION,ECCENTRICITY,INCLINATION,RA_OF_ASC_NODE,ARG_OF_PERICENTER,MEAN_ANOMALY,EPHEMERIS_TYPE,CLASSIFICATION_TYPE,NORAD_CAT_ID,ELEMENT_SET_NO,REV_AT_EPOCH,BSTAR,MEAN_MOTION_DOT,MEAN_MOTION_DDOT,SEMIMAJOR_AXIS,PERIOD,APOAPSIS,PERIAPSIS,OBJECT_TYPE,RCS_SIZE,COUNTRY_CODE,LAUNCH_DATE,SITE,DECAY_DATE,FILE,GP_ID,TLE_LINE0,TLE_LINE1,TLE_LINE2
2,GENERATED VIA SPACE-TRACK.ORG API,2020-09-30T03:48:57,18 SPCS,STARLINK-1098,2020-001D,EARTH,TEME,UTC,SGP4,2020-09-29T22:00:03.999744,15.05557748,8.2e-05,52.998,265.5881,90.425,30.0611,0,U,44917,999,176,0.0022479,0.00032605,0,6927.931,95.645,550.364,549.228,PAYLOAD,LARGE,US,2020-01-07,AFETR,,2838000,162469696,0 STARLINK-1098,1 44917U 20001D   20273.91671296 +.00032605 +00000-0 +22479-2 0  9995,2 44917 052.9980 265.5881 0000820 090.4250 030.0611 15.05557748001767
2,GENERATED VIA SPACE-TRACK.ORG API,2020-09-30T19:42:07,18 SPCS,STARLINK-1098,2020-001D,EARTH,TEME,UTC,SGP4,2020-09-30T14:00:01.000224,15.05587783,8.54e-05,52.9978,262.5966,72.1055,63.5672,0,U,44917,999,176,-0.0018422,-0.00027023,0,6927.839,95.643,550.295,549.112,PAYLOAD,LARGE,US,2020-01-07,AFETR,,2838070,162491778,0 STARLINK-1098,1 44917U 20001D   20274.58334491 -.00027023 +00000-0 -18422-2 0  9995,2 44917 052.9978 262.5966 0000854 072.1055 063.5672 15.05587783001762
2,GENERATED VIA SPACE-TRACK.ORG API,2020-10-01T01:40:27,18 SPCS,STARLINK-1098,2020-001D,EARTH,TEME,UTC,SGP4,2020-09-30T22:00:00.999936,15.05563609,8.66e-05,52.998,261.0988,85.88,57.4937,0,U,44917,999,181,0.00197,0.00028527,0,6927.913,95.645,550.378,549.178,PAYLOAD,LARGE,US,2020-01-07,AFETR,,2838446,162520356,0 STARLINK-1098,1 44917U 20001D   20274.91667824 +.00028527 +00000-0 +19700-2 0  9999,2 44917 052.9980 261.0988 0000866 085.8800 057.4937 15.05563609001818
2,GENERATED VIA SPACE-TRACK.ORG API,2020-10-01T02:16:10,18 SPCS,STARLINK-1098,2020-001D,EARTH,TEME,UTC,SGP4,2020-10-01T00:00:00.999648,15.05581434,8.99e-05,52.9981,260.7251,85.7291,149.5615,0,U,44917,999,4056,2.9396e-05,1.49e-06,0,6927.858,95.644,550.346,549.1,PAYLOAD,LARGE,US,2020-01-07,AFETR,,2838891,162532891,0 STARLINK-1098,1 44917U 20001D   20275.00001157  .00000149  00000-0  29396-4 0  9995,2 44917  52.9981 260.7251 0000899  85.7291 149.5615 15.05581434 40564
2,GENERATED VIA SPACE-TRACK.ORG API,2020-10-01T17:48:54,18 SPCS,STARLINK-1098,2020-001D,EARTH,TEME,UTC,SGP4,2020-10-01T14:00:01.000224,15.05579601,9.4e-05,52.9981,258.1071,69.432,89.3239,0,U,44917,999,176,0.00049148,6.889e-05,0,6927.864,95.644,550.38,549.077,PAYLOAD,LARGE,US,2020-01-07,AFETR,,2839403,162564864,0 STARLINK-1098,1 44917U 20001D   20275.58334491 +.00006889 +00000-0 +49148-3 0  9991,2 44917 052.9981 258.1071 0000940 069.4320 089.3239 15.05579601001769
2,GENERATED VIA SPACE-TRACK.ORG API,2020-10-02T02:09:23,18 SPCS,STARLINK-1098,2020-001D,EARTH,TEME,UTC,SGP4,2020-10-01T22:00:01.999584,15.05598347,0.0001047,52.9985,256.6092,81.8341,84.6824,0,U,44917,999,175,0.0017292,0.00025017,0,6927.806,95.643,550.396,548.946,PAYLOAD,LARGE,US,2020-01-07,AFETR,,2839626,162587960,0 STARLINK-1098,1 44917U 20001D   20275.91668981 +.00025017 +00000-0 +17292-2 0  9990,2 44917 052.9985 256.6092 0001047 081.8341 084.6824 15.05598347001754
2,GENERATED VIA SPACE-TRACK.ORG API,2020-10-02T06:46:09,18 SPCS,STARLINK-1098,2020-001D,EARTH,TEME,UTC,SGP4,2020-10-02T06:00:00.999648,15.05619236,0.0001183,52.9986,255.1145,69.9185,104.2694,0,U,44917,999,4075,-0.002356,-0.00034476,0,6927.742,95.641,550.427,548.787,PAYLOAD,LARGE,US,2020-01-07,AFETR,,2839971,162598751,0 STARLINK-1098,1 44917U 20001D   20276.25001157 -.00034476  00000-0 -23560-2 0  9990,2 44917  52.9986 255.1145 0001183  69.9185 104.2694 15.05619236 40750
2,GENERATED VIA SPACE-TRACK.ORG API,2020-10-02T16:51:42,18 SPCS,STARLINK-1098,2020-001D,EARTH,TEME,UTC,SGP4,2020-10-02T14:00:01.000224,15.05603194,0.0001203,52.9987,253.6173,70.5695,111.3509,0,U,44917,999,176,-0.0027978,-0.00040834,0,6927.791,95.642,550.49,548.823,PAYLOAD,LARGE,US,2020-01-07,AFETR,,2840178,162621980,0 STARLINK-1098,1 44917U 20001D   20276.58334491 -.00040834 +00000-0 -27978-2 0  9998,2 44917 052.9987 253.6173 0001203 070.5695 111.3509 15.05603194001760
2,GENERATED VIA SPACE-TRACK.ORG API,2020-10-03T04:36:52,18 SPCS,STARLINK-1098,2020-001D,EARTH,TEME,UTC,SGP4,2020-10-02T22:00:00.999936,15.05577746,0.0001229,52.9992,252.1197,80.6853,108.9444,0,U,44917,999,175,0.001402,0.00020205,0,6927.869,95.644,550.586,548.883,PAYLOAD,LARGE,US,2020-01-07,AFETR,,2840435,162645928,0 STARLINK-1098,1 44917U 20001D   20276.91667824 +.00020205 +00000-0 +14020-2 0  9996,2 44917 052.9992 252.1197 0001229 080.6853 108.9444 15.05577746001754
2,GENERATED VIA SPACE-TRACK.ORG API,2020-10-03T06:56:10,18 SPCS,STARLINK-1098,2020-001D,EARTH,TEME,UTC,SGP4,2020-10-03T06:00:02.000160,15.05581892,0.000132,52.9993,250.625,69.5276,127.8736,0,U,44917,999,4090,-9.2853e-05,-1.632e-05,0,6927.857,95.644,550.636,548.807,PAYLOAD,LARGE,US,2020-01-07,AFETR,,2840865,162658105,0 STARLINK-1098,1 44917U 20001D   20277.25002315 -.00001632  00000-0 -92853-4 0  9999,2 44917  52.9993 250.6250 0001320  69.5276 127.8736 15.05581892 40906
2,GENERATED VIA SPACE-TRACK.ORG API,2020-10-03T18:08:34,18 SPCS,STARLINK-1098,2020-001D,EARTH,TEME,UTC,SGP4,2020-10-03T14:00:01.999872,15.05603664,0.0001256,52.9994,249.1277,70.6914,134.4079,0,U,44917,999,176,-0.0024469,-0.00035774,0,6927.79,95.642,550.525,548.785,PAYLOAD,LARGE,US,2020-01-07,AFETR,,2841306,162686909,0 STARLINK-1098,1 44917U 20001D   20277.58335648 -.00035774 +00000-0 -24469-2 0  9993,2 44917 052.9994 249.1277 0001256 070.6914 134.4079 15.05603664001766
2,GENERATED VIA SPACE-TRACK.ORG API,2020-10-04T03:06:29,18 SPCS,STARLINK-1098,2020-001D,EARTH,TEME,UTC,SGP4,2020-10-03T22:00:07.000416,15.05584507,0.0001251,52.9997,247.6302,80.3712,132.7517,0,U,44917,999,175,0.0010459,0.00014994,0,6927.849,95.643,550.58,548.847,PAYLOAD,LARGE,US,2020-01-07,AFETR,,2841547,162710946,0 STARLINK-1098,1 44917U 20001D   20277.91674769 +.00014994 +00000-0 +10459-2 0  9993,2 44917 052.9997 247.6302 0001251 080.3712 132.7517 15.05584507001751
2,GENERATED VIA SPACE-TRACK.ORG API,2020-10-04T15:06:11,18 SPCS,STARLINK-1098,2020-001D,EARTH,TEME,UTC,SGP4,2020-10-04T14:00:01.000224,15.05606011,0.0001255,52.9996,244.6385,71.0555,157.1088,0,U,44917,999,4110,-0.0024701,-0.00036111,0,6927.783,95.642,550.517,548.778,PAYLOAD,LARGE,US,2020-01-07,AFETR,,2842249,162730337,0 STARLINK-1098,1 44917U 20001D   20278.58334491 -.00036111  00000-0 -24701-2 0  9994,2 44917  52.9996 244.6385 0001255  71.0555 157.1088 15.05606011 41106
2,GENERATED VIA SPACE-TRACK.ORG API,2020-10-05T02:15:51,18 SPCS,STARLINK-1098,2020-001D,EARTH,TEME,UTC,SGP4,2020-10-04T22:00:00.999936,15.0559073,0.0001259,52.9998,243.1415,80.9772,154.898,0,U,44917,999,175,0.00060803,8.593e-05,0,6927.829,95.643,550.567,548.822,PAYLOAD,LARGE,US,2020-01-07,AFETR,,2842655,162778218,0 STARLINK-1098,1 44917U 20001D   20278.91667824 +.00008593 +00000-0 +60803-3 0  9995,2 44917 052.9998 243.1415 0001259 080.9772 154.8980 15.05590730001752
2,GENERATED VIA SPACE-TRACK.ORG API,2020-10-05T06:36:11,18 SPCS,STARLINK-1098,2020-001D,EARTH,TEME,UTC,SGP4,2020-10-05T06:00:00.999648,15.05580913,0.0001349,52.9996,241.6468,69.4704,174.1248,0,U,44917,999,4120,0.00075161,0.00010689,0,6927.86,95.644,550.659,548.79,PAYLOAD,LARGE,US,2020-01-07,AFETR,,2842886,162806440,0 STARLINK-1098,1 44917U 20001D   20279.25001157  .00010689  00000-0  75161-3 0  9996,2 44917  52.9996 241.6468 0001349  69.4704 174.1248 15.05580913 41206
2,GENERATED VIA SPACE-TRACK.ORG API,2020-10-05T16:37:24,18 SPCS,STARLINK-1098,2020-001D,EARTH,TEME,UTC,SGP4,2020-10-05T14:00:01.999872,15.05604828,0.0001265,52.9993,240.1493,73.2788,178.0824,0,U,44917,999,176,-0.0023856,-0.0003489,0,6927.786,95.642,550.528,548.775,PAYLOAD,LARGE,US,2020-01-07,AFETR,,2843286,162834546,0 STARLINK-1098,1 44917U 20001D   20279.58335648 -.00034890 +00000-0 -23856-2 0  9992,2 44917 052.9993 240.1493 0001265 073.2788 178.0824 15.05604828001769
2,GENERATED VIA SPACE-TRACK.ORG API,2020-10-06T03:18:37,18 SPCS,STARLINK-1098,2020-001D,EARTH,TEME,UTC,SGP4,2020-10-05T22:00:03.000096,15.05595299,0.0001307,52.9994,238.6525,81.0435,178.0911,0,U,44917,999,175,0.00017956,2.339e-05,0,6927.815,95.643,550.586,548.775,PAYLOAD,LARGE,US,2020-01-07,AFETR,,2843543,162859001,0 STARLINK-1098,1 44917U 20001D   20279.91670139 +.00002339 +00000-0 +17956-3 0  9992,2 44917 052.9994 238.6525 0001307 081.0435 178.0911 15.05595299001758
2,GENERATED VIA SPACE-TRACK.ORG API,2020-10-06T18:26:25,18 SPCS,STARLINK-1098,2020-001D,EARTH,TEME,UTC,SGP4,2020-10-06T04:49:13.408896,15.05588983,0.0001254,53.0002,237.3768,73.9109,286.2017,0,U,44917,999,4135,5.5807e-05,5.34e-06,0,6927.835,95.643,550.569,548.831,PAYLOAD,LARGE,US,2020-01-07,AFETR,,2844326,162897244,0 STARLINK-1098,1 44917U 20001D   20280.20084964 +.00000534 +00000-0 +55807-4 0  9994,2 44917 053.0002 237.3768 0001254 073.9109 286.2017 15.05588983041355
2,GENERATED VIA SPACE-TRACK.ORG API,2020-10-06T14:36:10,18 SPCS,STARLINK-1098,2020-001D,EARTH,TEME,UTC,SGP4,2020-10-06T09:35:59.641440,15.05589743,0.0001259,53.0002,236.4828,73.5386,286.574,0,U,44917,999,4138,5.9311e-05,5.85e-06,0,6927.832,95.643,550.57,548.825,PAYLOAD,LARGE,US,2020-01-07,AFETR,,2844252,162876543,0 STARLINK-1098,1 44917U 20001D   20280.39999585  .00000585  00000-0  59311-4 0  9998,2 44917  53.0002 236.4828 0001259  73.5386 286.5740 15.05589743 41384
2,GENERATED VIA SPACE-TRACK.ORG API,2020-10-07T16:49:45,18 SPCS,STARLINK-1098,2020-001D,EARTH,TEME,UTC,SGP4,2020-10-07T06:18:39.947040,15.05592722,0.0001302,53.0003,232.6086,73.3447,286.7683,0,U,44917,999,4151,5.9621e-05,5.9e-06,0,6927.823,95.643,550.59,548.786,PAYLOAD,LARGE,US,2020-01-07,AFETR,,2845327,162960854,0 STARLINK-1098,1 44917U 20001D   20281.26296235 +.00000590 +00000-0 +59621-4 0  9997,2 44917 053.0003 232.6086 0001302 073.3447 286.7683 15.05592722041518
